start=new Date('2022-04-22T00:00:00.000Z').valueOf();
sats=[{"ELEMENT_SET_NO":"999","FILE":"3410450","MEAN_MOTION":"15.73221662","BSTAR":"-0.00011088000000","MEAN_ANOMALY":"223.5106","OBJECT_TYPE":"PAYLOAD","REF_FRAME":"TEME","GP_ID":"201778737","MEAN_ELEMENT_THEORY":"SGP4","OBJECT_NAME":"STARLINK-3647","TLE_LINE2":"2 51994  53.2136 285.1849 0000989  83.8692 223.5106 15.73221662  3714","COUNTRY_CODE":"US","TLE_LINE1":"1 51994U 22025AQ  22111.91667824 -.00016165  00000-0 -11088-3 0  9991","DECAY_DATE":null,"NORAD_CAT_ID":"51994","CLASSIFICATION_TYPE":"U","APOAPSIS":"350.364","PERIAPSIS":"349.033","ARG_OF_PERICENTER":"83.8692","REV_AT_EPOCH":"371","TIME_SYSTEM":"UTC","EPHEMERIS_TYPE":"0","RCS_SIZE":"LARGE","EPOCH":"2022-04-21T22:00:00.999936","MEAN_MOTION_DOT":"-0.00016165","LAUNCH_DATE":"2022-03-09","RA_OF_ASC_NODE":"285.1849","SEMIMAJOR_AXIS":"6727.833","OBJECT_ID":"2022-025AQ","CENTER_NAME":"EARTH","MEAN_MOTION_DDOT":"0.0000000000000","ECCENTRICITY":"0.00009890","INCLINATION":"53.2136","PERIOD":"91.532","SITE":"AFETR"},{"EPHEMERIS_TYPE":"0","TIME_SYSTEM":"UTC","REV_AT_EPOCH":"371","EPOCH":"2022-04-21T22:00:00.999936","RCS_SIZE":"LARGE","LAUNCH_DATE":"2022-03-09","MEAN_MOTION_DOT":"0.00077080","RA_OF_ASC_NODE":"285.1899","CENTER_NAME":"EARTH","MEAN_MOTION_DDOT":"0.0000000000000","OBJECT_ID":"2022-025AR","SEMIMAJOR_AXIS":"6727.960","INCLINATION":"53.2143","ECCENTRICITY":"0.00009310","SITE":"AFETR","PERIOD":"91.534","FILE":"3410450","MEAN_MOTION":"15.73177397","ELEMENT_SET_NO":"999","MEAN_ANOMALY":"227.7833","OBJECT_TYPE":"PAYLOAD","REF_FRAME":"TEME","BSTAR":"0.00054912000000","GP_ID":"201778147","MEAN_ELEMENT_THEORY":"SGP4","TLE_LINE2":"2 51995  53.2143 285.1899 0000931  77.6457 227.7833 15.73177397  3713","COUNTRY_CODE":"US","TLE_LINE1":"1 51995U 22025AR  22111.91667824  .00077080  00000-0  54912-3 0  9996","OBJECT_NAME":"STARLINK-3636","DECAY_DATE":null,"CLASSIFICATION_TYPE":"U","NORAD_CAT_ID":"51995","PERIAPSIS":"349.198","ARG_OF_PERICENTER":"77.6457","APOAPSIS":"350.451"},{"GP_ID":"201778317","BSTAR":"-0.00013568000000","OBJECT_TYPE":"PAYLOAD","MEAN_ANOMALY":"226.0906","REF_FRAME":"TEME","ELEMENT_SET_NO":"999","MEAN_MOTION":"15.73223805","FILE":"3410450","APOAPSIS":"350.368","ARG_OF_PERICENTER":"81.9270","PERIAPSIS":"349.016","CLASSIFICATION_TYPE":"U","DECAY_DATE":null,"NORAD_CAT_ID":"51996","OBJECT_NAME":"STARLINK-3538","TLE_LINE1":"1 51996U 22025AS  22111.91667824 -.00019636  00000-0 -13568-3 0  9994","COUNTRY_CODE":"US","TLE_LINE2":"2 51996  53.2137 285.1835 0001005  81.9270 226.0906 15.73223805  3710","MEAN_ELEMENT_THEORY":"SGP4","RA_OF_ASC_NODE":"285.1835","MEAN_MOTION_DOT":"-0.00019636","LAUNCH_DATE":"2022-03-09","RCS_SIZE":"LARGE","EPOCH":"2022-04-21T22:00:00.999936","REV_AT_EPOCH":"371","TIME_SYSTEM":"UTC","EPHEMERIS_TYPE":"0","PERIOD":"91.532","SITE":"AFETR","ECCENTRICITY":"0.00010050","INCLINATION":"53.2137","SEMIMAJOR_AXIS":"6727.827","OBJECT_ID":"2022-025AS","MEAN_MOTION_DDOT":"0.0000000000000","CENTER_NAME":"EARTH"},{"APOAPSIS":"350.514","ARG_OF_PERICENTER":"84.8237","PERIAPSIS":"348.859","NORAD_CAT_ID":"51997","DECAY_DATE":null,"CLASSIFICATION_TYPE":"U","OBJECT_NAME":"STARLINK-3589","TLE_LINE1":"1 51997U 22025AT  22111.91667824 -.00026160  00000-0 -18235-3 0  9991","COUNTRY_CODE":"US","TLE_LINE2":"2 51997  53.2132 285.1857 0001230  84.8237 221.2836 15.73225895  3715","MEAN_ELEMENT_THEORY":"SGP4","GP_ID":"201778232","BSTAR":"-0.00018235000000","OBJECT_TYPE":"PAYLOAD","MEAN_ANOMALY":"221.2836","REF_FRAME":"TEME","ELEMENT_SET_NO":"999","MEAN_MOTION":"15.73225895","FILE":"3410450","PERIOD":"91.532","SITE":"AFETR","ECCENTRICITY":"0.00012300","INCLINATION":"53.2132","SEMIMAJOR_AXIS":"6727.821","OBJECT_ID":"2022-025AT","MEAN_MOTION_DDOT":"0.0000000000000","CENTER_NAME":"EARTH","RA_OF_ASC_NODE":"285.1857","MEAN_MOTION_DOT":"-0.00026160","LAUNCH_DATE":"2022-03-09","RCS_SIZE":"LARGE","EPOCH":"2022-04-21T22:00:00.999936","REV_AT_EPOCH":"371","TIME_SYSTEM":"UTC","EPHEMERIS_TYPE":"0"},{"FILE":"3410450","MEAN_MOTION":"15.73218985","ELEMENT_SET_NO":"999","MEAN_ANOMALY":"231.3860","OBJECT_TYPE":"PAYLOAD","REF_FRAME":"TEME","BSTAR":"0.00003091100000","GP_ID":"201778397","MEAN_ELEMENT_THEORY":"SGP4","TLE_LINE2":"2 51998  53.2139 285.1820 0001036  77.8915 231.3860 15.73218985  3713","COUNTRY_CODE":"US","TLE_LINE1":"1 51998U 22025AU  22111.91667824  .00003724  00000-0  30911-4 0  9997","OBJECT_NAME":"STARLINK-3618","NORAD_CAT_ID":"51998","DECAY_DATE":null,"CLASSIFICATION_TYPE":"U","PERIAPSIS":"349.009","ARG_OF_PERICENTER":"77.8915","APOAPSIS":"350.403","EPHEMERIS_TYPE":"0","TIME_SYSTEM":"UTC","REV_AT_EPOCH":"371","EPOCH":"2022-04-21T22:00:00.999936","RCS_SIZE":"LARGE","LAUNCH_DATE":"2022-03-09","MEAN_MOTION_DOT":"0.00003724","RA_OF_ASC_NODE":"285.1820","CENTER_NAME":"EARTH","MEAN_MOTION_DDOT":"0.0000000000000","SEMIMAJOR_AXIS":"6727.841","OBJECT_ID":"2022-025AU","INCLINATION":"53.2139","ECCENTRICITY":"0.00010360","SITE":"AFETR","PERIOD":"91.532"},{"BSTAR":"0.00081220000000","REF_FRAME":"TEME","OBJECT_TYPE":"PAYLOAD","MEAN_ANOMALY":"238.6583","ELEMENT_SET_NO":"999","FILE":"3410450","MEAN_MOTION":"15.73167708","GP_ID":"201778488","OBJECT_NAME":"STARLINK-3667","TLE_LINE2":"2 51999  53.2134 285.1811 0000980  69.9724 238.6583 15.73167708  3714","COUNTRY_CODE":"US","TLE_LINE1":"1 51999U 22025AV  22111.91667824  .00114776  00000-0  81220-3 0  9996","MEAN_ELEMENT_THEORY":"SGP4","APOAPSIS":"350.512","PERIAPSIS":"349.193","ARG_OF_PERICENTER":"69.9724","DECAY_DATE":null,"NORAD_CAT_ID":"51999","CLASSIFICATION_TYPE":"U","RCS_SIZE":"LARGE","EPOCH":"2022-04-21T22:00:00.999936","REV_AT_EPOCH":"371","EPHEMERIS_TYPE":"0","TIME_SYSTEM":"UTC","RA_OF_ASC_NODE":"285.1811","MEAN_MOTION_DOT":"0.00114776","LAUNCH_DATE":"2022-03-09","SEMIMAJOR_AXIS":"6727.987","OBJECT_ID":"2022-025AV","CENTER_NAME":"EARTH","MEAN_MOTION_DDOT":"0.0000000000000","PERIOD":"91.535","SITE":"AFETR","ECCENTRICITY":"0.00009800","INCLINATION":"53.2134"},{"TIME_SYSTEM":"UTC","EPHEMERIS_TYPE":"0","REV_AT_EPOCH":"371","EPOCH":"2022-04-21T22:00:00.999936","RCS_SIZE":"LARGE","LAUNCH_DATE":"2022-03-09","MEAN_MOTION_DOT":"0.00059148","RA_OF_ASC_NODE":"285.1801","CENTER_NAME":"EARTH","MEAN_MOTION_DDOT":"0.0000000000000","SEMIMAJOR_AXIS":"6727.907","OBJECT_ID":"2022-025AW","INCLINATION":"53.2142","ECCENTRICITY":"0.00009620","SITE":"AFETR","PERIOD":"91.533","FILE":"3410450","MEAN_MOTION":"15.73195899","ELEMENT_SET_NO":"999","MEAN_ANOMALY":"216.5882","OBJECT_TYPE":"PAYLOAD","REF_FRAME":"TEME","BSTAR":"0.00042296000000","GP_ID":"201778658","MEAN_ELEMENT_THEORY":"SGP4","COUNTRY_CODE":"US","TLE_LINE2":"2 52000  53.2142 285.1801 0000962  93.9476 216.5882 15.73195899  3716","TLE_LINE1":"1 52000U 22025AW  22111.91667824  .00059148  00000-0  42296-3 0  9991","OBJECT_NAME":"STARLINK-3653","NORAD_CAT_ID":"52000","DECAY_DATE":null,"CLASSIFICATION_TYPE":"U","PERIAPSIS":"349.125","ARG_OF_PERICENTER":"93.9476","APOAPSIS":"350.419"},{"SEMIMAJOR_AXIS":"6727.857","OBJECT_ID":"2022-025AX","MEAN_MOTION_DDOT":"0.0000000000000","CENTER_NAME":"EARTH","PERIOD":"91.532","SITE":"AFETR","ECCENTRICITY":"0.00011410","INCLINATION":"53.2132","RCS_SIZE":"LARGE","EPOCH":"2022-04-21T22:00:00.999936","REV_AT_EPOCH":"371","TIME_SYSTEM":"UTC","EPHEMERIS_TYPE":"0","RA_OF_ASC_NODE":"285.1781","MEAN_MOTION_DOT":"0.00022560","LAUNCH_DATE":"2022-03-09","OBJECT_NAME":"STARLINK-3659","TLE_LINE1":"1 52001U 22025AX  22111.91667824  .00022560  00000-0  16463-3 0  9997","TLE_LINE2":"2 52001  53.2132 285.1781 0001141  80.7699 229.1161 15.73213464  3713","COUNTRY_CODE":"US","MEAN_ELEMENT_THEORY":"SGP4","APOAPSIS":"350.489","ARG_OF_PERICENTER":"80.7699","PERIAPSIS":"348.954","NORAD_CAT_ID":"52001","DECAY_DATE":null,"CLASSIFICATION_TYPE":"U","BSTAR":"0.00016463000000","REF_FRAME":"TEME","OBJECT_TYPE":"PAYLOAD","MEAN_ANOMALY":"229.1161","ELEMENT_SET_NO":"999","FILE":"3410450","MEAN_MOTION":"15.73213464","GP_ID":"201778573"},{"DECAY_DATE":null,"NORAD_CAT_ID":"52002","CLASSIFICATION_TYPE":"U","APOAPSIS":"350.425","ARG_OF_PERICENTER":"74.8922","PERIAPSIS":"348.798","MEAN_ELEMENT_THEORY":"SGP4","OBJECT_NAME":"STARLINK-3668","TLE_LINE1":"1 52002U 22025AY  22111.91667824 -.00002705  00000-0 -14828-4 0  9993","COUNTRY_CODE":"US","TLE_LINE2":"2 52002  53.2137 285.1779 0001209  74.8922 236.3231 15.73252068  3715","GP_ID":"201778738","ELEMENT_SET_NO":"999","MEAN_MOTION":"15.73252068","FILE":"3410450","BSTAR":"-0.00001482800000","OBJECT_TYPE":"PAYLOAD","MEAN_ANOMALY":"236.3231","REF_FRAME":"TEME","ECCENTRICITY":"0.00012090","INCLINATION":"53.2137","PERIOD":"91.530","SITE":"AFETR","OBJECT_ID":"2022-025AY","SEMIMAJOR_AXIS":"6727.747","MEAN_MOTION_DDOT":"0.0000000000000","CENTER_NAME":"EARTH","MEAN_MOTION_DOT":"-0.00002705","LAUNCH_DATE":"2022-03-09","RA_OF_ASC_NODE":"285.1779","REV_AT_EPOCH":"371","TIME_SYSTEM":"UTC","EPHEMERIS_TYPE":"0","RCS_SIZE":"LARGE","EPOCH":"2022-04-21T22:00:00.999936"},{"RA_OF_ASC_NODE":"285.1786","MEAN_MOTION_DOT":"0.00012755","LAUNCH_DATE":"2022-03-09","RCS_SIZE":"LARGE","EPOCH":"2022-04-21T22:00:00.999936","REV_AT_EPOCH":"371","EPHEMERIS_TYPE":"0","TIME_SYSTEM":"UTC","PERIOD":"91.532","SITE":"AFETR","ECCENTRICITY":"0.00010580","INCLINATION":"53.2149","OBJECT_ID":"2022-025AZ","SEMIMAJOR_AXIS":"6727.843","CENTER_NAME":"EARTH","MEAN_MOTION_DDOT":"0.0000000000000","GP_ID":"201778148","BSTAR":"0.00009508200000","REF_FRAME":"TEME","OBJECT_TYPE":"PAYLOAD","MEAN_ANOMALY":"242.2729","ELEMENT_SET_NO":"999","MEAN_MOTION":"15.73218256","FILE":"3410450","APOAPSIS":"350.420","PERIAPSIS":"348.996","ARG_OF_PERICENTER":"69.5406","CLASSIFICATION_TYPE":"U","DECAY_DATE":null,"NORAD_CAT_ID":"52003","OBJECT_NAME":"STARLINK-3654","TLE_LINE2":"2 52003  53.2149 285.1786 0001058  69.5406 242.2729 15.73218256  3716","COUNTRY_CODE":"US","TLE_LINE1":"1 52003U 22025AZ  22111.91667824  .00012755  00000-0  95082-4 0  9999","MEAN_ELEMENT_THEORY":"SGP4"}];
